{"fetched_at":"2026-07-17T06:37:53.254Z","source":"https://celestrak.org/NORAD/elements/gp.php?GROUP=planet&FORMAT=JSON","constellation":"superdove","records":[{"OBJECT_NAME":"FLOCK 4G-33","OBJECT_ID":"2025-009CE","EPOCH":"2026-07-16T12:00:47.653056","CLASSIFICATION_TYPE":"U","MEAN_MOTION":15.25806807,"ECCENTRICITY":0.000482,"INCLINATION":97.3943,"RA_OF_ASC_NODE":277.0401,"ARG_OF_PERICENTER":208.6833,"MEAN_ANOMALY":151.4141,"EPHEMERIS_TYPE":0,"NORAD_CAT_ID":62685,"ELEMENT_SET_NO":999,"REV_AT_EPOCH":8327,"BSTAR":0.00012554,"MEAN_MOTION_DOT":0.00003137,"MEAN_MOTION_DDOT":0},{"OBJECT_NAME":"FLOCK 4H-1","OBJECT_ID":"2025-276AQ","EPOCH":"2026-07-16T15:49:18.304032","CLASSIFICATION_TYPE":"U","MEAN_MOTION":15.20862118,"ECCENTRICITY":0.0002152,"INCLINATION":97.4169,"RA_OF_ASC_NODE":270.883,"ARG_OF_PERICENTER":169.8072,"MEAN_ANOMALY":190.3208,"EPHEMERIS_TYPE":0,"NORAD_CAT_ID":66704,"ELEMENT_SET_NO":999,"REV_AT_EPOCH":3491,"BSTAR":0.0001531,"MEAN_MOTION_DOT":0.00003312,"MEAN_MOTION_DDOT":0},{"OBJECT_NAME":"FLOCK 4H-2","OBJECT_ID":"2025-276AR","EPOCH":"2026-07-16T15:11:03.270336","CLASSIFICATION_TYPE":"U","MEAN_MOTION":15.21133129,"ECCENTRICITY":0.0001612,"INCLINATION":97.4165,"RA_OF_ASC_NODE":270.906,"ARG_OF_PERICENTER":152.0265,"MEAN_ANOMALY":208.1057,"EPHEMERIS_TYPE":0,"NORAD_CAT_ID":66705,"ELEMENT_SET_NO":999,"REV_AT_EPOCH":3491,"BSTAR":0.00016269,"MEAN_MOTION_DOT":0.00003552,"MEAN_MOTION_DDOT":0},{"OBJECT_NAME":"FLOCK 4H-3","OBJECT_ID":"2025-276AS","EPOCH":"2026-07-16T03:54:25.258176","CLASSIFICATION_TYPE":"U","MEAN_MOTION":15.20250112,"ECCENTRICITY":0.00025032,"INCLINATION":97.4234,"RA_OF_ASC_NODE":270.3676,"ARG_OF_PERICENTER":242.8657,"MEAN_ANOMALY":117.2323,"EPHEMERIS_TYPE":0,"NORAD_CAT_ID":66706,"ELEMENT_SET_NO":999,"REV_AT_EPOCH":3482,"BSTAR":0.00015868774,"MEAN_MOTION_DOT":0.00003374,"MEAN_MOTION_DDOT":0},{"OBJECT_NAME":"FLOCK 4H-4","OBJECT_ID":"2025-276AT","EPOCH":"2026-07-16T15:50:06.878112","CLASSIFICATION_TYPE":"U","MEAN_MOTION":15.20046652,"ECCENTRICITY":0.0003238,"INCLINATION":97.4215,"RA_OF_ASC_NODE":270.7233,"ARG_OF_PERICENTER":246.4118,"MEAN_ANOMALY":113.6778,"EPHEMERIS_TYPE":0,"NORAD_CAT_ID":66707,"ELEMENT_SET_NO":999,"REV_AT_EPOCH":3489,"BSTAR":0.00016665,"MEAN_MOTION_DOT":0.00003526,"MEAN_MOTION_DDOT":0},{"OBJECT_NAME":"FLOCK 4H-5","OBJECT_ID":"2025-276AU","EPOCH":"2026-07-16T15:38:05.673984","CLASSIFICATION_TYPE":"U","MEAN_MOTION":15.20913085,"ECCENTRICITY":0.000147,"INCLINATION":97.4166,"RA_OF_ASC_NODE":270.8967,"ARG_OF_PERICENTER":134.5295,"MEAN_ANOMALY":225.6061,"EPHEMERIS_TYPE":0,"NORAD_CAT_ID":66708,"ELEMENT_SET_NO":999,"REV_AT_EPOCH":3491,"BSTAR":0.00014904,"MEAN_MOTION_DOT":0.00003227,"MEAN_MOTION_DDOT":0},{"OBJECT_NAME":"FLOCK 4H-6","OBJECT_ID":"2025-276AV","EPOCH":"2026-07-16T15:09:56.528928","CLASSIFICATION_TYPE":"U","MEAN_MOTION":15.20614464,"ECCENTRICITY":0.0002641,"INCLINATION":97.4219,"RA_OF_ASC_NODE":270.9212,"ARG_OF_PERICENTER":198.7892,"MEAN_ANOMALY":161.3247,"EPHEMERIS_TYPE":0,"NORAD_CAT_ID":66709,"ELEMENT_SET_NO":999,"REV_AT_EPOCH":3490,"BSTAR":0.00016198,"MEAN_MOTION_DOT":0.00003483,"MEAN_MOTION_DDOT":0},{"OBJECT_NAME":"FLOCK 4H-7","OBJECT_ID":"2025-276AW","EPOCH":"2026-07-16T03:40:36.585408","CLASSIFICATION_TYPE":"U","MEAN_MOTION":15.20386387,"ECCENTRICITY":0.00006716,"INCLINATION":97.4178,"RA_OF_ASC_NODE":270.2065,"ARG_OF_PERICENTER":287.8233,"MEAN_ANOMALY":72.2929,"EPHEMERIS_TYPE":0,"NORAD_CAT_ID":66710,"ELEMENT_SET_NO":999,"REV_AT_EPOCH":3482,"BSTAR":0.00017712805,"MEAN_MOTION_DOT":0.00003789,"MEAN_MOTION_DDOT":0},{"OBJECT_NAME":"FLOCK 4H-8","OBJECT_ID":"2025-276AX","EPOCH":"2026-07-16T16:05:31.726176","CLASSIFICATION_TYPE":"U","MEAN_MOTION":15.20498975,"ECCENTRICITY":0.000191,"INCLINATION":97.4215,"RA_OF_ASC_NODE":270.8662,"ARG_OF_PERICENTER":262.7927,"MEAN_ANOMALY":97.3091,"EPHEMERIS_TYPE":0,"NORAD_CAT_ID":66711,"ELEMENT_SET_NO":999,"REV_AT_EPOCH":3490,"BSTAR":0.00017558,"MEAN_MOTION_DOT":0.00003768,"MEAN_MOTION_DDOT":0},{"OBJECT_NAME":"FLOCK 4H-9","OBJECT_ID":"2025-276AY","EPOCH":"2026-07-16T14:50:14.551008","CLASSIFICATION_TYPE":"U","MEAN_MOTION":15.20799554,"ECCENTRICITY":0.0002617,"INCLINATION":97.4207,"RA_OF_ASC_NODE":270.9097,"ARG_OF_PERICENTER":207.2332,"MEAN_ANOMALY":152.8767,"EPHEMERIS_TYPE":0,"NORAD_CAT_ID":66712,"ELEMENT_SET_NO":999,"REV_AT_EPOCH":3490,"BSTAR":0.0001923,"MEAN_MOTION_DOT":0.0000417,"MEAN_MOTION_DDOT":0},{"OBJECT_NAME":"FLOCK 4H-10","OBJECT_ID":"2025-276AZ","EPOCH":"2026-07-16T15:27:00.363744","CLASSIFICATION_TYPE":"U","MEAN_MOTION":15.20174095,"ECCENTRICITY":0.0003008,"INCLINATION":97.4183,"RA_OF_ASC_NODE":270.6425,"ARG_OF_PERICENTER":247.3524,"MEAN_ANOMALY":112.7394,"EPHEMERIS_TYPE":0,"NORAD_CAT_ID":66713,"ELEMENT_SET_NO":999,"REV_AT_EPOCH":3489,"BSTAR":0.0001666,"MEAN_MOTION_DOT":0.00003538,"MEAN_MOTION_DDOT":0},{"OBJECT_NAME":"FLOCK 4H-11","OBJECT_ID":"2025-276BA","EPOCH":"2026-07-16T20:42:33.224256","CLASSIFICATION_TYPE":"U","MEAN_MOTION":15.23354117,"ECCENTRICITY":0.0001545,"INCLINATION":97.4188,"RA_OF_ASC_NODE":271.4596,"ARG_OF_PERICENTER":234.7865,"MEAN_ANOMALY":125.3227,"EPHEMERIS_TYPE":0,"NORAD_CAT_ID":66714,"ELEMENT_SET_NO":999,"REV_AT_EPOCH":3496,"BSTAR":0.00032219,"MEAN_MOTION_DOT":0.00007587,"MEAN_MOTION_DDOT":0},{"OBJECT_NAME":"FLOCK 4H-12","OBJECT_ID":"2025-276BB","EPOCH":"2026-07-16T16:06:18.203328","CLASSIFICATION_TYPE":"U","MEAN_MOTION":15.20826385,"ECCENTRICITY":0.0002076,"INCLINATION":97.4181,"RA_OF_ASC_NODE":270.8976,"ARG_OF_PERICENTER":177.0041,"MEAN_ANOMALY":183.1207,"EPHEMERIS_TYPE":0,"NORAD_CAT_ID":66715,"ELEMENT_SET_NO":999,"REV_AT_EPOCH":3522,"BSTAR":0.00017125,"MEAN_MOTION_DOT":0.00003709,"MEAN_MOTION_DDOT":0},{"OBJECT_NAME":"FLOCK 4H-13","OBJECT_ID":"2025-276BC","EPOCH":"2026-07-16T15:23:50.359776","CLASSIFICATION_TYPE":"U","MEAN_MOTION":15.20927974,"ECCENTRICITY":0.0002017,"INCLINATION":97.4214,"RA_OF_ASC_NODE":271.0425,"ARG_OF_PERICENTER":141.4223,"MEAN_ANOMALY":218.7157,"EPHEMERIS_TYPE":0,"NORAD_CAT_ID":66716,"ELEMENT_SET_NO":999,"REV_AT_EPOCH":3491,"BSTAR":0.00017564,"MEAN_MOTION_DOT":0.00003817,"MEAN_MOTION_DDOT":0},{"OBJECT_NAME":"FLOCK 4H-14","OBJECT_ID":"2025-276BD","EPOCH":"2026-07-16T16:00:59.619744","CLASSIFICATION_TYPE":"U","MEAN_MOTION":15.21376503,"ECCENTRICITY":0.0001875,"INCLINATION":97.4197,"RA_OF_ASC_NODE":271.1152,"ARG_OF_PERICENTER":140.1346,"MEAN_ANOMALY":220.0027,"EPHEMERIS_TYPE":0,"NORAD_CAT_ID":66717,"ELEMENT_SET_NO":999,"REV_AT_EPOCH":3417,"BSTAR":0.00016968,"MEAN_MOTION_DOT":0.00003735,"MEAN_MOTION_DDOT":0},{"OBJECT_NAME":"FLOCK 4H-15","OBJECT_ID":"2025-276BE","EPOCH":"2026-07-16T03:37:52.288032","CLASSIFICATION_TYPE":"U","MEAN_MOTION":15.19889782,"ECCENTRICITY":0.00026638,"INCLINATION":97.4212,"RA_OF_ASC_NODE":270.1633,"ARG_OF_PERICENTER":270.1556,"MEAN_ANOMALY":89.9374,"EPHEMERIS_TYPE":0,"NORAD_CAT_ID":66718,"ELEMENT_SET_NO":999,"REV_AT_EPOCH":3481,"BSTAR":0.00018429558,"MEAN_MOTION_DOT":0.00003889,"MEAN_MOTION_DDOT":0}]}
