FLOCK 4G-33             
1 62685U 25009CE  26197.50055154  .00003137  00000+0  12554-3 0  9996
2 62685  97.3943 277.0401 0004820 208.6833 151.4141 15.25806807 83278
FLOCK 4H-1              
1 66704U 25276AQ  26197.65923963  .00003312  00000+0  15310-3 0  9994
2 66704  97.4169 270.8830 0002152 169.8072 190.3208 15.20862118 34916
FLOCK 4H-2              
1 66705U 25276AR  26197.63267674  .00003552  00000+0  16269-3 0  9993
2 66705  97.4165 270.9060 0001612 152.0265 208.1057 15.21133129 34911
FLOCK 4H-3              
1 66706U 25276AS  26197.16279234  .00003374  00000+0  15869-3 0  9994
2 66706  97.4234 270.3676 0002503 242.8657 117.2323 15.20250112 34826
FLOCK 4H-4              
1 66707U 25276AT  26197.65980183  .00003526  00000+0  16665-3 0  9995
2 66707  97.4215 270.7233 0003238 246.4118 113.6778 15.20046652 34890
FLOCK 4H-5              
1 66708U 25276AU  26197.65145456  .00003227  00000+0  14904-3 0  9994
2 66708  97.4166 270.8967 0001470 134.5295 225.6061 15.20913085 34915
FLOCK 4H-6              
1 66709U 25276AV  26197.63190427  .00003483  00000+0  16198-3 0  9992
2 66709  97.4219 270.9212 0002641 198.7892 161.3247 15.20614464 34905
FLOCK 4H-7              
1 66710U 25276AW  26197.15320122  .00003789  00000+0  17713-3 0  9991
2 66710  97.4178 270.2065 0000671 287.8233  72.2929 15.20386387 34828
FLOCK 4H-8              
1 66711U 25276AX  26197.67050609  .00003768  00000+0  17558-3 0  9993
2 66711  97.4215 270.8662 0001910 262.7927  97.3091 15.20498975 34903
FLOCK 4H-9              
1 66712U 25276AY  26197.61822397  .00004170  00000+0  19230-3 0  9996
2 66712  97.4207 270.9097 0002617 207.2332 152.8767 15.20799554 34901
FLOCK 4H-10             
1 66713U 25276AZ  26197.64375421  .00003538  00000+0  16660-3 0  9992
2 66713  97.4183 270.6425 0003008 247.3524 112.7394 15.20174095 34896
FLOCK 4H-11             
1 66714U 25276BA  26197.86288454  .00007587  00000+0  32219-3 0  9992
2 66714  97.4188 271.4596 0001545 234.7865 125.3227 15.23354117 34963
FLOCK 4H-12             
1 66715U 25276BB  26197.67104402  .00003709  00000+0  17125-3 0  9993
2 66715  97.4181 270.8976 0002076 177.0041 183.1207 15.20826385 35225
FLOCK 4H-13             
1 66716U 25276BC  26197.64155509  .00003817  00000+0  17564-3 0  9992
2 66716  97.4214 271.0425 0002017 141.4223 218.7157 15.20927974 34917
FLOCK 4H-14             
1 66717U 25276BD  26197.66735671  .00003735  00000+0  16968-3 0  9995
2 66717  97.4197 271.1152 0001875 140.1346 220.0027 15.21376503 34176
FLOCK 4H-15             
1 66718U 25276BE  26197.15129963  .00003889  00000+0  18430-3 0  9997
2 66718  97.4212 270.1633 0002663 270.1556  89.9374 15.19889782 34814
